[{"OBJECT_NAME":"STARLINK-4491","OBJECT_ID":"2022-097W","EPOCH":"2026-03-09T10:45:37.214496","MEAN_MOTION":15.08840309,"ECCENTRICITY":4.085e-5,"INCLINATION":53.2169,"RA_OF_ASC_NODE":115.2102,"ARG_OF_PERICENTER":62.4856,"MEAN_ANOMALY":297.6178,"EPHEMERIS_TYPE":0,"CLASSIFICATION_TYPE":"U","NORAD_CAT_ID":53408,"ELEMENT_SET_NO":999,"REV_AT_EPOCH":19861,"BSTAR":3.1879086e-5,"MEAN_MOTION_DOT":2.2e-6,"MEAN_MOTION_DDOT":0},{"OBJECT_NAME":"YUNYAO-1 43","OBJECT_ID":"2025-059A","EPOCH":"2026-03-09T23:54:24.516576","MEAN_MOTION":15.10329109,"ECCENTRICITY":0.00157026,"INCLINATION":97.608,"RA_OF_ASC_NODE":250.9377,"ARG_OF_PERICENTER":132.1084,"MEAN_ANOMALY":228.1483,"EPHEMERIS_TYPE":0,"CLASSIFICATION_TYPE":"U","NORAD_CAT_ID":63344,"ELEMENT_SET_NO":999,"REV_AT_EPOCH":5332,"BSTAR":0.00032498885,"MEAN_MOTION_DOT":5.279e-5,"MEAN_MOTION_DDOT":0}]
